IRIDIUM 106             
1 41917U 17003A   24006.19798743  .00000332  00000+0  11150-3 0  9991
2 41917  86.3972 101.7446 0001796  92.2127 267.9274 14.34219293365210
IRIDIUM 103             
1 41918U 17003B   24005.76669338  .00000347  00000+0  11700-3 0  9998
2 41918  86.3971 101.8273 0002389  93.0152 267.1317 14.34218378365173
IRIDIUM 109             
1 41919U 17003C   24006.19164560  .00000329  00000+0  11031-3 0  9991
2 41919  86.3974 101.6946 0002263  99.6154 260.5297 14.34216620365225
IRIDIUM 102             
1 41920U 17003D   24005.81109097  .00000292  00000+0  97086-4 0  9999
2 41920  86.3971 101.7961 0002147  99.5349 260.6090 14.34218563365239
IRIDIUM 105             
1 41921U 17003E   24005.71204082  .00000299  00000+0  99611-4 0  9992
2 41921  86.3957  70.2415 0002202  93.9595 266.1853 14.34205959367078
IRIDIUM 104             
1 41922U 17003F   24005.75400763  .00000329  00000+0  11051-3 0  9996
2 41922  86.3973 101.8490 0002306  97.0442 263.1016 14.34217878365217
IRIDIUM 114             
1 41923U 17003G   24005.76034357  .00000333  00000+0  11187-3 0  9995
2 41923  86.3972 101.8329 0001815  93.3544 266.7859 14.34217575365199
IRIDIUM 108             
1 41924U 17003H   24005.71886967  .00000270  00000+0  89343-4 0  9993
2 41924  86.3952  70.1736 0001904  92.6445 267.4968 14.34218116367046
